[{"OBJECT_NAME":"STARLINK-32558","OBJECT_ID":"2024-225G","EPOCH":"2026-03-09T22:57:39.963456","MEAN_MOTION":14.98337034,"ECCENTRICITY":0.00035819,"INCLINATION":70.0012,"RA_OF_ASC_NODE":163.8361,"ARG_OF_PERICENTER":277.1062,"MEAN_ANOMALY":82.969,"EPHEMERIS_TYPE":0,"CLASSIFICATION_TYPE":"U","NORAD_CAT_ID":62169,"ELEMENT_SET_NO":999,"REV_AT_EPOCH":6991,"BSTAR":0.00056610831,"MEAN_MOTION_DOT":6.67e-5,"MEAN_MOTION_DDOT":0},{"OBJECT_NAME":"FALCON 1 R\/B","OBJECT_ID":"2009-037B","EPOCH":"2026-03-08T17:35:48.909408","MEAN_MOTION":14.88730418,"ECCENTRICITY":0.00374904,"INCLINATION":9.0437,"RA_OF_ASC_NODE":137.3099,"ARG_OF_PERICENTER":171.2098,"MEAN_ANOMALY":188.8755,"EPHEMERIS_TYPE":0,"CLASSIFICATION_TYPE":"U","NORAD_CAT_ID":35579,"ELEMENT_SET_NO":999,"REV_AT_EPOCH":90049,"BSTAR":0.00039887201,"MEAN_MOTION_DOT":4.571e-5,"MEAN_MOTION_DDOT":0}]
